$$SOE
2460728.500000000, A.D. 2025-Feb-22 00:00:00.0000, -1.666050260687748E+08, -2.610460798944937E+07, -1.535435969398919E+07,
2460735.500000000, A.D. 2025-Mar-01 00:00:00.0000, -1.663769706740296E+08, -4.327688287754150E+07, -1.476627594366413E+07,
2460742.500000000, A.D. 2025-Mar-08 00:00:00.0000, -1.645772570895400E+08, -6.004187952224441E+07, -1.403865302470350E+07,
2460749.500000000, A.D. 2025-Mar-15 00:00:00.0000, -1.613061220856213E+08, -7.627149571534093E+07, -1.318546801283297E+07,
2460756.500000000, A.D. 2025-Mar-22 00:00:00.0000, -1.566678615100785E+08, -9.185602271780266E+07, -1.222048642365898E+07,
2460763.500000000, A.D. 2025-Mar-29 00:00:00.0000, -1.507684531474528E+08, -1.067023805668648E+08, -1.115708907891189E+07,
2460770.500000000, A.D. 2025-Apr-05 00:00:00.0000, -1.437137764356582E+08, -1.207323099400450E+08, -1.000815875383764E+07,
2460777.500000000, A.D. 2025-Apr-12 00:00:00.0000, -1.356083283836606E+08, -1.338806176788111E+08, -8.786013235993855E+06,
2460784.500000000, A.D. 2025-Apr-19 00:00:00.0000, -1.265543396093947E+08, -1.460935365251433E+08, -7.502373480443574E+06,
2460791.500000000, A.D. 2025-Apr-26 00:00:00.0000, -1.166512052282695E+08, -1.573272315774112E+08, -6.168357493678853E+06,
2460798.500000000, A.D. 2025-May-03 00:00:00.0000, -1.059951583881019E+08, -1.675464668137431E+08, -4.794492433427535E+06,
2460805.500000000, A.D. 2025-May-10 00:00:00.0000, -9.467912705642904E+07, -1.767234328845682E+08, -3.390739162662566E+06,
2460812.500000000, A.D. 2025-May-17 00:00:00.0000, -8.279272660827917E+07, -1.848367302392237E+08, -1.966525000412196E+06,
2460819.500000000, A.D. 2025-May-24 00:00:00.0000, -7.042235117427386E+07, -1.918704974620731E+08, -5.307814909201711E+05,
2460826.500000000, A.D. 2025-May-31 00:00:00.0000, -5.765133499936698E+07, -1.978136720547862E+08, 9.080152442773432E+05,
2460833.500000000, A.D. 2025-Jun-07 00:00:00.0000, -4.456016257000282E+07, -2.026593692528397E+08, 2.341803517125428E+06,
2460840.500000000, A.D. 2025-Jun-14 00:00:00.0000, -3.122671345075778E+07, -2.064043666212939E+08, 3.762895846721232E+06,
2460847.500000000, A.D. 2025-Jun-21 00:00:00.0000, -1.772652814547992E+07, -2.090486858055631E+08, 5.163939871472478E+06,
2460854.500000000, A.D. 2025-Jun-28 00:00:00.0000, -4.133082440652785E+06, -2.105952594182576E+08, 6.537880679023519E+06,
2460861.500000000, A.D. 2025-Jul-05 00:00:00.0000, 9.481935103659118E+06, -2.110496725015064E+08, 7.877925147554457E+06,
2460868.500000000, A.D. 2025-Jul-12 00:00:00.0000, 2.304834605586099E+07, -2.104199725366768E+08, 9.177508590312719E+06,
2460875.500000000, A.D. 2025-Jul-19 00:00:00.0000, 3.649720884902940E+07, -2.087165429675996E+08, 1.043026385827386E+07,
2460882.500000000, A.D. 2025-Jul-26 00:00:00.0000, 4.976055196635994E+07, -2.059520358182743E+08, 1.162999304037184E+07,
2460889.500000000, A.D. 2025-Aug-02 00:00:00.0000, 6.277111563253034E+07, -2.021413600978381E+08, 1.277064187289407E+07,
2460896.500000000, A.D. 2025-Aug-09 00:00:00.0000, 7.546210389935769E+07, -1.973017239461863E+08, 1.384627696022432E+07,
2460903.500000000, A.D. 2025-Aug-16 00:00:00.0000, 8.776694917192978E+07, -1.914527297479841E+08, 1.485106594187900E+07,
2460910.500000000, A.D. 2025-Aug-23 00:00:00.0000, 9.961909173695838E+07, -1.846165225273849E+08, 1.577926080662554E+07,
2460917.500000000, A.D. 2025-Aug-30 00:00:00.0000, 1.109517774345427E+08, -1.768179922904131E+08, 1.662518469999315E+07,
2460924.500000000, A.D. 2025-Sep-06 00:00:00.0000, 1.216978757118811E+08, -1.680850316667315E+08, 1.738322286675539E+07,
2460931.500000000, A.D. 2025-Sep-13 00:00:00.0000, 1.317897212118853E+08, -1.584488545840079E+08, 1.804781825051125E+07,
2460938.500000000, A.D. 2025-Sep-20 00:00:00.0000, 1.411589885346497E+08, -1.479443816691248E+08, 1.861347206438369E+07,
2460945.500000000, A.D. 2025-Sep-27 00:00:00.0000, 1.497366095767365E+08, -1.366106939722671E+08, 1.907475045641242E+07,
2460952.500000000, A.D. 2025-Oct-04 00:00:00.0000, 1.574527422693156E+08, -1.244915595939456E+08, 1.942629872323404E+07,
2460959.500000000, A.D. 2025-Oct-11 00:00:00.0000, 1.642368042799036E+08, -1.116360393105746E+08, 1.966286455630718E+07,
2460966.500000000, A.D. 2025-Oct-18 00:00:00.0000, 1.700175897132460E+08, -9.809917610432278E+07, 1.977933215265326E+07,
2460973.500000000, A.D. 2025-Oct-25 00:00:00.0000, 1.747234913179619E+08, -8.394277187531522E+07, 1.977076946365295E+07,
2460980.500000000, A.D. 2025-Nov-01 00:00:00.0000, 1.782828560830173E+08, -6.923625207315488E+07, 1.963249131584301E+07,
2460987.500000000, A.D. 2025-Nov-08 00:00:00.0000, 1.806245084338839E+08, -5.405761480204544E+07, 1.936014161346832E+07,
2460994.500000000, A.D. 2025-Nov-15 00:00:00.0000, 1.816784823694661E+08, -3.849445439753469E+07, 1.894979828021332E+07,
2461001.500000000, A.D. 2025-Nov-22 00:00:00.0000, 1.813770114657174E+08, -2.264503935979052E+07, 1.839810496900988E+07,
2461008.500000000, A.D. 2025-Nov-29 00:00:00.0000, 1.796558321853353E+08, -6.619409543615823E+06, 1.770243393874964E+07,
2461015.500000000, A.D. 2025-Dec-06 00:00:00.0000, 1.764558592978122E+08, 9.459560463094980E+06, 1.686108451307724E+07,
2461022.500000000, A.D. 2025-Dec-13 00:00:00.0000, 1.717252965843835E+08, 2.545520723050835E+07, 1.587352030996788E+07,
2461029.500000000, A.D. 2025-Dec-20 00:00:00.0000, 1.654222440390605E+08, 4.121634621672563E+07, 1.474064693243228E+07,
2461036.500000000, A.D. 2025-Dec-27 00:00:00.0000, 1.575178423012512E+08, 5.657691482044392E+07, 1.346512952543077E+07,
2461043.500000000, A.D. 2026-Jan-03 00:00:00.0000, 1.479999622842541E+08, 7.135618487979686E+07, 1.205174478387013E+07,
2461050.500000000, A.D. 2026-Jan-10 00:00:00.0000, 1.368773944142992E+08, 8.535978186440912E+07, 1.050775505835920E+07,
2461057.500000000, A.D. 2026-Jan-17 00:00:00.0000, 1.241844084742577E+08, 9.838178151673461E+07, 8.843283025598057E+06,
2461064.500000000, A.D. 2026-Jan-24 00:00:00.0000, 1.099854402711393E+08, 1.102081624010150E+08, 7.071654008484088E+06,
2461071.500000000, A.D. 2026-Jan-31 00:00:00.0000, 9.437951997088823E+07, 1.206218547240816E+08, 5.209660534641787E+06,
2461078.500000000, A.D. 2026-Feb-07 00:00:00.0000, 7.750390535527854E+07, 1.294095193580940E+08, 3.277692465134889E+06,
2461085.500000000, A.D. 2026-Feb-14 00:00:00.0000, 5.953625418759214E+07, 1.363699984122116E+08, 1.299669784195028E+06,
2461092.500000000, A.D. 2026-Feb-21 00:00:00.0000, 4.069461220855584E+07, 1.413240989616174E+08, -6.972812019794881E+05,
2461099.500000000, A.D. 2026-Feb-28 00:00:00.0000, 2.123456262123268E+07, 1.441250326306362E+08, -2.683449290809110E+06,
2461106.500000000, A.D. 2026-Mar-07 00:00:00.0000, 1.443126124877109E+06, 1.446684991219670E+08, -4.627463948024757E+06,
2461113.500000000, A.D. 2026-Mar-14 00:00:00.0000, -1.837057229276527E+07, 1.429011797205587E+08, -6.497483445022970E+06,
2461120.500000000, A.D. 2026-Mar-21 00:00:00.0000, -3.788731258035171E+07, 1.388264049960611E+08, -8.262550648107544E+06,
2461127.500000000, A.D. 2026-Mar-28 00:00:00.0000, -5.679137664510598E+07, 1.325060294581799E+08, -9.893978218515120E+06,
2461134.500000000, A.D. 2026-Apr-04 00:00:00.0000, -7.478427318170206E+07, 1.240580718015955E+08, -1.136660656488791E+07,
2461141.500000000, A.D. 2026-Apr-11 00:00:00.0000, -9.159705039445546E+07, 1.136503464238675E+08, -1.265979220436005E+07,
2461148.500000000, A.D. 2026-Apr-18 00:00:00.0000, -1.069999061366232E+08, 1.014909383510322E+08, -1.375802905612615E+07,
2461155.500000000, A.D. 2026-Apr-25 00:00:00.0000, -1.208083083017277E+08, 8.781679184019631E+07, -1.465116793347095E+07,
2461162.500000000, A.D. 2026-May-02 00:00:00.0000, -1.328854425331350E+08, 7.288180364077257E+07, -1.533426228653873E+07,
2461169.500000000, A.D. 2026-May-09 00:00:00.0000, -1.431413452569834E+08, 5.694565030970415E+07, -1.580711558981876E+07,
2461176.500000000, A.D. 2026-May-16 00:00:00.0000, -1.515294439824331E+08, 4.026423092205630E+07, -1.607362974074619E+07,
2461183.500000000, A.D. 2026-May-23 00:00:00.0000, -1.580413785155521E+08, 2.308219642599693E+07, -1.614105492235500E+07,
2461190.500000000, A.D. 2026-May-30 00:00:00.0000, -1.627009481203291E+08, 5.627666329876858E+06, -1.601922607260364E+07,
2461197.500000000, A.D. 2026-Jun-06 00:00:00.0000, -1.655578805000089E+08, -1.189104006896779E+07, -1.571984834466138E+07,
2461204.500000000, A.D. 2026-Jun-13 00:00:00.0000, -1.666819187729120E+08, -2.928698309087417E+07, -1.525586986339513E+07,
2461211.500000000, A.D. 2026-Jun-20 00:00:00.0000, -1.661575344233286E+08, -4.639487320318000E+07, -1.464095879288875E+07,
2461218.500000000, A.D. 2026-Jun-27 00:00:00.0000, -1.640794158550979E+08, -6.307040605273103E+07, -1.388908656978180E+07,
2461225.500000000, A.D. 2026-Jul-04 00:00:00.0000, -1.605487642625405E+08, -7.918898662283334E+07, -1.301420955566264E+07,
2461232.500000000, A.D. 2026-Jul-11 00:00:00.0000, -1.556703534057746E+08, -9.464410181899759E+07, -1.203003624095123E+07,
2461239.500000000, A.D. 2026-Jul-18 00:00:00.0000, -1.495502691430771E+08, -1.093455356922532E+08, -1.094986560183942E+07,
2461246.500000000, A.D. 2026-Jul-25 00:00:00.0000, -1.422942283121548E+08, -1.232175638204399E+08, -9.786482689317062E+06,
2461253.500000000, A.D. 2026-Aug-01 00:00:00.0000, -1.340063752826474E+08, -1.361972162646143E+08, -8.552098729548968E+06,
2461260.500000000, A.D. 2026-Aug-08 00:00:00.0000, -1.247884615384084E+08, -1.482326628440510E+08, -7.258324682288513E+06,
2461267.500000000, A.D. 2026-Aug-15 00:00:00.0000, -1.147393250626137E+08, -1.592817485381261E+08, -5.916169147393793E+06,
2461274.500000000, A.D. 2026-Aug-22 00:00:00.0000, -1.039546006418974E+08, -1.693106886527228E+08, -4.536053264434569E+06,
2461281.500000000, A.D. 2026-Aug-29 00:00:00.0000, -9.252660655706343E+07, -1.782929246554965E+08, -3.127836988681987E+06,
2461288.500000000, A.D. 2026-Sep-05 00:00:00.0000, -8.054436021958129E+07, -1.862081362113311E+08, -1.700853016758204E+06,
2461295.500000000, A.D. 2026-Sep-12 00:00:00.0000, -6.809368483480510E+07, -1.930413958498772E+08, -2.639453060547709E+05,
$$EOE